0 FENGYUN 1C DEB
1 35192U 99025DNY 13280.49183146  .00003389  00000-0  99459-3 0  2215
2 35192 099.1233 017.4673 0294201 319.3765 038.5789 14.22334665307971
0 FENGYUN 1C DEB
1 35192U 99025DNY 13283.51662239  .00005192  00000-0  15129-2 0  2222
2 35192 099.1231 020.6023 0294240 310.6793 046.9148 14.22366353308402
0 FENGYUN 1C DEB
1 35192U 99025DNY 13285.48622456  .00004934  00000-0  14383-2 0  2232
2 35192 099.1234 022.6435 0294239 305.0388 052.3503 14.22379287308686
0 FENGYUN 1C DEB
1 35192U 99025DNY 13289.49570662  .00007946  00000-0  23015-2 0  2247
2 35192 099.1245 026.8001 0294379 293.5142 063.5357 14.22424867309257
0 FENGYUN 1C DEB
1 35192U 99025DNY 13291.46523346  .00007604  00000-0  22014-2 0  2254
2 35192 099.1246 028.8422 0294467 287.8597 069.0668 14.22448912309539
0 FENGYUN 1C DEB
1 35192U 99025DNY 13293.50507031  .00008748  00000-0  25274-2 0  2266
2 35192 099.1241 030.9572 0294599 282.0017 074.8285 14.22472978309824
